STARLINK-3074
1 19170C 21082AS  21326.12760848 -.00669000  00000-0 -11388-1 0  3263
2 19170  70.0003 293.3479 0003398 273.1725  55.1345 15.51903798    12
